{"type":"FeatureCollection","features":[{"type":"Feature","id":72,"geometry":{"type":"Point","coordinates":[121.54291090576194,24.975082924616117]},"properties":{"station_name":"七張站","location":"北新路與寶橋路交叉口","source_point_count":1,"source":"Taipei City DORTS official station GIS"}},{"type":"Feature","id":109,"geometry":{"type":"Point","coordinates":[121.52868133414034,24.983975047740326]},"properties":{"station_name":"十四張站","location":"位於新北市新店區中正路、民權路路口西側十四張地區，","source_point_count":1,"source":"Taipei City DORTS official station GIS"}},{"type":"Feature","id":85,"geometry":{"type":"Point","coordinates":[121.4732409343405,25.085670388402686]},"properties":{"station_name":"三民高中站","location":"蘆洲市三民路與復興路口","source_point_count":1,"source":"Taipei City DORTS official station GIS"}},{"type":"Feature","id":83,"geometry":{"type":"Point","coordinates":[121.48634726046637,25.076807789998487]},"properties":{"station_name":"三和國中站","location":"三重市三和國中前之三和路四段","source_point_count":1,"source":"Taipei City DORTS official station GIS"}},{"type":"Feature","id":81,"geometry":{"type":"Point","coordinates":[121.48394655536788,25.055599497777273]},"properties":{"station_name":"三重站","location":"三重市褔音街，重陽路一段與重新路四段交會口至河堤道","source_point_count":1,"source":"Taipei City DORTS official station GIS"}},{"type":"Feature","id":82,"geometry":{"type":"Point","coordinates":[121.49744089647028,25.06993514635369]},"properties":{"station_name":"三重國小站","location":"三重市三重國小前之三和路三段","source_point_count":1,"source":"Taipei City DORTS official station GIS"}},{"type":"Feature","id":45,"geometry":{"type":"Point","coordinates":[121.44445157812851,24.973226018542306]},"properties":{"station_name":"土城站","location":"土城中正路與和平路交叉口","source_point_count":1,"source":"Taipei City DORTS official station GIS"}},{"type":"Feature","id":14,"geometry":{"type":"Point","coordinates":[121.52619154203542,25.093473978379233]},"properties":{"station_name":"士林站","location":"原台鐵士林站址","source_point_count":1,"source":"Taipei City DORTS official station GIS"}},{"type":"Feature","id":27,"geometry":{"type":"Point","coordinates":[121.54362610836036,25.032820571789415]},"properties":{"station_name":"大安站","location":"復興南路與信義路交叉口","source_point_count":1,"source":"Taipei City DORTS official station GIS"}},{"type":"Feature","id":100,"geometry":{"type":"Point","coordinates":[121.53530802842741,25.033535249788702]},"properties":{"station_name":"大安森林公園站","location":"信義路三段大安森林公園內(建國南路與新生南路間,經濟","source_point_count":1,"source":"Taipei City DORTS official station GIS"}},{"type":"Feature","id":47,"geometry":{"type":"Point","coordinates":[121.54136603459979,24.98291383211464]},"properties":{"station_name":"大坪林站","location":"北新路與民權路交叉口 / 位於新北市新店區民權路、北新路口，可與松山新店線交","source_point_count":2,"source":"Taipei City DORTS official station GIS"}},{"type":"Feature","id":58,"geometry":{"type":"Point","coordinates":[121.54814855983047,25.080477332873862]},"properties":{"station_name":"大直站","location":"北安路139巷口附近","source_point_count":1,"source":"Taipei City DORTS official station GIS"}},{"type":"Feature","id":63,"geometry":{"type":"Point","coordinates":[121.60231290704219,25.083808665102364]},"properties":{"station_name":"大湖公園站","location":"成功路五段大湖公園旁","source_point_count":1,"source":"Taipei City DORTS official station GIS"}},{"type":"Feature","id":94,"geometry":{"type":"Point","coordinates":[121.51284877944677,25.062922383118206]},"properties":{"station_name":"大橋頭站","location":"民權西路大橋國小旁","source_point_count":1,"source":"Taipei City DORTS official station GIS"}},{"type":"Feature","id":51,"geometry":{"type":"Point","coordinates":[121.51078176424518,25.03567277740626]},"properties":{"station_name":"小南門站","location":"愛國西路與博愛路交叉口附近","source_point_count":1,"source":"Taipei City DORTS official station GIS"}},{"type":"Feature","id":92,"geometry":{"type":"Point","coordinates":[121.53529784254049,24.969554204072104]},"properties":{"station_name":"小碧潭站","location":"新店機場","source_point_count":1,"source":"Taipei City DORTS official station GIS"}},{"type":"Feature","id":17,"geometry":{"type":"Point","coordinates":[121.52039689994415,25.052675663462967]},"properties":{"station_name":"中山站","location":"原台鐵淡水線與南京西路交叉口 / 原台鐵淡水線與南京西路交叉口(松山線)","source_point_count":2,"source":"Taipei City DORTS official station GIS"}},{"type":"Feature","id":78,"geometry":{"type":"Point","coordinates":[121.52766447228026,25.062650998309735]},"properties":{"station_name":"中山國小站","location":"林森北路與新生北路間之民權東路下方","source_point_count":1,"source":"Taipei City DORTS official station GIS"}},{"type":"Feature","id":28,"geometry":{"type":"Point","coordinates":[121.54421643862625,25.06080611141716]},"properties":{"station_name":"中山國中站","location":"復興北路介於錦州街與民權東路之間","source_point_count":1,"source":"Taipei City DORTS official station GIS"}},{"type":"Feature","id":52,"geometry":{"type":"Point","coordinates":[121.51704931954889,25.034274268909193]},"properties":{"station_name":"中正紀念堂","location":"羅斯福路與愛國東路交叉口 (中央銀行前)","source_point_count":1,"source":"Taipei City DORTS official station GIS"}},{"type":"Feature","id":113,"geometry":{"type":"Point","coordinates":[121.49685451609759,25.001725086176496]},"properties":{"station_name":"中和站","location":"位於新北市中和區景平路、中山路二段路口，可與萬大-?","source_point_count":1,"source":"Taipei City DORTS official station GIS"}},{"type":"Feature","id":111,"geometry":{"type":"Point","coordinates":[121.4833543397396,25.008508751981285]},"properties":{"station_name":"中原站","location":"位於新北市中和區板南路、中正路路口附近，近板南2號?","source_point_count":1,"source":"Taipei City DORTS official station GIS"}},{"type":"Feature","id":98,"geometry":{"type":"Point","coordinates":[121.42269907251693,25.02892109029019]},"properties":{"station_name":"丹鳳站","location":"新莊市中正路與民安路交會口","source_point_count":1,"source":"Taipei City DORTS official station GIS"}},{"type":"Feature","id":62,"geometry":{"type":"Point","coordinates":[121.5942058701901,25.083505563733222]},"properties":{"station_name":"內湖站","location":"金龍路與成功路交叉口附近","source_point_count":1,"source":"Taipei City DORTS official station GIS"}},{"type":"Feature","id":70,"geometry":{"type":"Point","coordinates":[121.53434703188158,25.014707481089662]},"properties":{"station_name":"公館站","location":"羅斯福路與舟山路交叉口 (台灣大學旁","source_point_count":1,"source":"Taipei City DORTS official station GIS"}},{"type":"Feature","id":25,"geometry":{"type":"Point","coordinates":[121.55305797317669,25.023844874449296]},"properties":{"station_name":"六張犁站","location":"和平東路與基隆路口附近之和平東路上","source_point_count":1,"source":"Taipei City DORTS official station GIS"}},{"type":"Feature","id":61,"geometry":{"type":"Point","coordinates":[121.58496851542783,25.078533104982156]},"properties":{"station_name":"文德站","location":"文德路101 巷口附近、內湖高中前","source_point_count":1,"source":"Taipei City DORTS official station GIS"}},{"type":"Feature","id":20,"geometry":{"type":"Point","coordinates":[121.57317598185708,24.998253351245694]},"properties":{"station_name":"木柵站","location":"木柵路４段與軍功路交叉口附近","source_point_count":1,"source":"Taipei City DORTS official station GIS"}},{"type":"Feature","id":6,"geometry":{"type":"Point","coordinates":[121.49859115985868,25.131907047486894]},"properties":{"station_name":"北投站","location":"原台鐵北投站址","source_point_count":1,"source":"Taipei City DORTS official station GIS"}},{"type":"Feature","id":106,"geometry":{"type":"Point","coordinates":[121.51027864590748,25.049294236338945]},"properties":{"station_name":"北門站","location":"塔城街 塔城街","source_point_count":1,"source":"Taipei City DORTS official station GIS"}},{"type":"Feature","id":53,"geometry":{"type":"Point","coordinates":[121.52256794084074,25.02688563357574]},"properties":{"station_name":"古亭站","location":"羅斯福路與和平東路交叉口","source_point_count":1,"source":"Taipei City DORTS official station GIS"}},{"type":"Feature","id":99,"geometry":{"type":"Point","coordinates":[121.56349009453463,25.032979477870576]},"properties":{"station_name":"台北101/世貿站","location":"信義路世貿中心旁","source_point_count":1,"source":"Taipei City DORTS official station GIS"}},{"type":"Feature","id":105,"geometry":{"type":"Point","coordinates":[121.55200315528347,25.051647240901218]},"properties":{"station_name":"台北小巨蛋站","location":"台北小巨蛋西北側 臺北小巨蛋北側","source_point_count":1,"source":"Taipei City DORTS official station GIS"}},{"type":"Feature","id":55,"geometry":{"type":"Point","coordinates":[121.51743802464144,25.04623308215621]},"properties":{"station_name":"台北車站","location":"台鐵火車站對面之忠孝西路地面下","source_point_count":1,"source":"Taipei City DORTS official station GIS"}},{"type":"Feature","id":79,"geometry":{"type":"Point","coordinates":[121.49986798025749,25.062943648509954]},"properties":{"station_name":"台北橋站","location":"三重市重新路一、二段與文化南、北路交叉口兩側","source_point_count":1,"source":"Taipei City DORTS official station GIS"}},{"type":"Feature","id":37,"geometry":{"type":"Point","coordinates":[121.52818732579676,25.0206926801639]},"properties":{"station_name":"台電大樓站","location":"羅斯福路與師大路交叉口 (古亭國小前)","source_point_count":1,"source":"Taipei City DORTS official station GIS"}},{"type":"Feature","id":33,"geometry":{"type":"Point","coordinates":[121.56525945405227,25.041178889805785]},"properties":{"station_name":"市政府站","location":"基隆路與忠孝東路口","source_point_count":1,"source":"Taipei City DORTS official station GIS"}},{"type":"Feature","id":15,"geometry":{"type":"Point","coordinates":[121.51936274027538,25.0628766640777]},"properties":{"station_name":"民權西路站","location":"原台鐵淡水線與民權西路交叉口","source_point_count":1,"source":"Taipei City DORTS official station GIS"}},{"type":"Feature","id":76,"geometry":{"type":"Point","coordinates":[121.51112538696665,25.0025558782519]},"properties":{"station_name":"永安市場站","location":"永安市場附近","source_point_count":1,"source":"Taipei City DORTS official station GIS"}},{"type":"Feature","id":32,"geometry":{"type":"Point","coordinates":[121.57587285864307,25.040863615394645]},"properties":{"station_name":"永春站","location":"虎林街與忠孝東路口","source_point_count":1,"source":"Taipei City DORTS official station GIS"}},{"type":"Feature","id":46,"geometry":{"type":"Point","coordinates":[121.4368272963635,24.96722082264252]},"properties":{"station_name":"永寧站","location":"土城中央路承天路交叉口","source_point_count":1,"source":"Taipei City DORTS official station GIS"}},{"type":"Feature","id":9,"geometry":{"type":"Point","coordinates":[121.51564228486639,25.11442030403345]},"properties":{"station_name":"石牌站","location":"原台鐵淡水線與石牌路交叉口","source_point_count":1,"source":"Taipei City DORTS official station GIS"}},{"type":"Feature","id":88,"geometry":{"type":"Point","coordinates":[121.47212279361337,25.04652686962352]},"properties":{"station_name":"先嗇宮站","location":"三重市重新路五段與光復路交會口","source_point_count":1,"source":"Taipei City DORTS official station GIS"}},{"type":"Feature","id":40,"geometry":{"type":"Point","coordinates":[121.47223676059656,25.02990494150171]},"properties":{"station_name":"江子翠站","location":"文化路與雙十路交叉口","source_point_count":1,"source":"Taipei City DORTS official station GIS"}},{"type":"Feature","id":2,"geometry":{"type":"Point","coordinates":[121.45945645180733,25.136949031922306]},"properties":{"station_name":"竹圍站","location":"原有台鐵竹圍站附近","source_point_count":1,"source":"Taipei City DORTS official station GIS"}},{"type":"Feature","id":77,"geometry":{"type":"Point","coordinates":[121.53315637381142,25.057966033663984]},"properties":{"station_name":"行天宮站","location":"民生東路與錦州街間之松江路下方","source_point_count":1,"source":"Taipei City DORTS official station GIS"}},{"type":"Feature","id":56,"geometry":{"type":"Point","coordinates":[121.50848773359478,25.04221259580232]},"properties":{"station_name":"西門站","location":"中華路與成都路交叉口","source_point_count":1,"source":"Taipei City DORTS official station GIS"}},{"type":"Feature","id":59,"geometry":{"type":"Point","coordinates":[121.56721245777506,25.082161413451665]},"properties":{"station_name":"西湖站","location":"內湖路一段西湖市場前","source_point_count":1,"source":"Taipei City DORTS official station GIS"}},{"type":"Feature","id":108,"geometry":{"type":"Point","coordinates":[121.52412027765078,24.99046028297493]},"properties":{"station_name":"秀朗橋站","location":"位於新北市中和區景平路、秀朗路三段路口","source_point_count":1,"source":"Taipei City DORTS official station GIS"}},{"type":"Feature","id":23,"geometry":{"type":"Point","coordinates":[121.55701024354885,25.005383561564923]},"properties":{"station_name":"辛亥站","location":"辛亥站西側臨近萬美街口處","source_point_count":1,"source":"Taipei City DORTS official station GIS"}},{"type":"Feature","id":44,"geometry":{"type":"Point","coordinates":[121.45264887597963,24.998589026114736]},"properties":{"station_name":"亞東醫院站","location":"南雅南路亞東醫院","source_point_count":1,"source":"Taipei City DORTS official station GIS"}},{"type":"Feature","id":7,"geometry":{"type":"Point","coordinates":[121.50108298242763,25.1255848542089]},"properties":{"station_name":"奇岩站","location":"原台鐵淡水線與三合街交叉口","source_point_count":1,"source":"Taipei City DORTS official station GIS"}},{"type":"Feature","id":114,"geometry":{"type":"Point","coordinates":[121.45990194656305,25.04978372474678]},"properties":{"station_name":"幸福站","location":"位於新北市新莊區思源路、幸福路路口","source_point_count":1,"source":"Taipei City DORTS official station GIS"}},{"type":"Feature","id":43,"geometry":{"type":"Point","coordinates":[121.45921891976971,25.00893484366025]},"properties":{"station_name":"府中站","location":"台鐵板橋火車站","source_point_count":1,"source":"Taipei City DORTS official station GIS"}},{"type":"Feature","id":36,"geometry":{"type":"Point","coordinates":[121.5437939991566,25.041602161147715]},"properties":{"station_name":"忠孝復興站","location":"忠孝東路與復興南路交叉口","source_point_count":1,"source":"Taipei City DORTS official station GIS"}},{"type":"Feature","id":35,"geometry":{"type":"Point","coordinates":[121.54965595627667,25.041494799659024]},"properties":{"station_name":"忠孝敦化站","location":"忠孝東路統領商圈附近","source_point_count":1,"source":"Taipei City DORTS official station GIS"}},{"type":"Feature","id":54,"geometry":{"type":"Point","coordinates":[121.5329187584091,25.042354839807203]},"properties":{"station_name":"忠孝新生站","location":"忠孝東路與新生南路交叉口","source_point_count":1,"source":"Taipei City DORTS official station GIS"}},{"type":"Feature","id":4,"geometry":{"type":"Point","coordinates":[121.47312224096675,25.130750883927913]},"properties":{"station_name":"忠義站","location":"中央北路四段 (捷運系統北投機廠西側)","source_point_count":1,"source":"Taipei City DORTS official station GIS"}},{"type":"Feature","id":30,"geometry":{"type":"Point","coordinates":[121.59302011238188,25.050188655335322]},"properties":{"station_name":"昆陽站","location":"忠孝東路與向陽路口","source_point_count":1,"source":"Taipei City DORTS official station GIS"}},{"type":"Feature","id":10,"geometry":{"type":"Point","coordinates":[121.51882040915987,25.10979393459779]},"properties":{"station_name":"明德站","location":"原台鐵淡水線與明德路交叉口","source_point_count":1,"source":"Taipei City DORTS official station GIS"}},{"type":"Feature","id":95,"geometry":{"type":"Point","coordinates":[121.5283217731544,25.033927616883844]},"properties":{"station_name":"東門站","location":"金山南路與永康街間之信義路下方(交會站)","source_point_count":1,"source":"Taipei City DORTS official station GIS"}},{"type":"Feature","id":65,"geometry":{"type":"Point","coordinates":[121.61173723204895,25.0675779516984]},"properties":{"station_name":"東湖站","location":"五分街加油站旁","source_point_count":1,"source":"Taipei City DORTS official station GIS"}},{"type":"Feature","id":103,"geometry":{"type":"Point","coordinates":[121.57773339237217,25.050001705200337]},"properties":{"station_name":"松山站","location":"臺鐵松山站前八德路4段下方","source_point_count":1,"source":"Taipei City DORTS official station GIS"}},{"type":"Feature","id":93,"geometry":{"type":"Point","coordinates":[121.55163511046122,25.063104460742142]},"properties":{"station_name":"松山機場站","location":"松山機場(敦化北路340之9號)","source_point_count":1,"source":"Taipei City DORTS official station GIS"}},{"type":"Feature","id":91,"geometry":{"type":"Point","coordinates":[121.53305981214753,25.05221699534198]},"properties":{"station_name":"松江南京站","location":"松江路與南京東路交叉口 / 松江路與南京東路交叉口(松山線)","source_point_count":2,"source":"Taipei City DORTS official station GIS"}},{"type":"Feature","id":110,"geometry":{"type":"Point","coordinates":[121.47293039513228,25.01400256960486]},"properties":{"station_name":"板新站","location":"位於新北市板橋區板新路、中山路路口","source_point_count":1,"source":"Taipei City DORTS official station GIS"}},{"type":"Feature","id":42,"geometry":{"type":"Point","coordinates":[121.46288178985358,25.014297123100366]},"properties":{"station_name":"板橋站","location":"文化路與光正街交叉口 / 位於新北市板橋區縣民大道、新站路路口，可與板南線交","source_point_count":2,"source":"Taipei City DORTS official station GIS"}},{"type":"Feature","id":11,"geometry":{"type":"Point","coordinates":[121.52254228457922,25.102811025940266]},"properties":{"station_name":"芝山站","location":"原台鐵淡水線與福國路交叉口","source_point_count":1,"source":"Taipei City DORTS official station GIS"}},{"type":"Feature","id":101,"geometry":{"type":"Point","coordinates":[121.5532325307526,25.033150041262278]},"properties":{"station_name":"信義安和站","location":"信義安和路口","source_point_count":1,"source":"Taipei City DORTS official station GIS"}},{"type":"Feature","id":104,"geometry":{"type":"Point","coordinates":[121.56439688283618,25.05143631962687]},"properties":{"station_name":"南京三民站","location":"南京東路5段與三民路口","source_point_count":1,"source":"Taipei City DORTS official station GIS"}},{"type":"Feature","id":68,"geometry":{"type":"Point","coordinates":[121.54380809849405,25.052081041483426]},"properties":{"station_name":"南京復興站","location":"復興北路與南京東路交叉口(木柵線) / 復興北路與南京東路交叉口(松山線)","source_point_count":2,"source":"Taipei City DORTS official station GIS"}},{"type":"Feature","id":57,"geometry":{"type":"Point","coordinates":[121.61762249277399,25.054565677892413]},"properties":{"station_name":"南港展覽館站","location":"南港研究院路交叉口北側","source_point_count":1,"source":"Taipei City DORTS official station GIS"}},{"type":"Feature","id":29,"geometry":{"type":"Point","coordinates":[121.60763420834284,25.052178377036658]},"properties":{"station_name":"南港站","location":"南港火車站旁","source_point_count":1,"source":"Taipei City DORTS official station GIS"}},{"type":"Feature","id":66,"geometry":{"type":"Point","coordinates":[121.61595418159041,25.059898992610883]},"properties":{"station_name":"南港軟體園區站","location":"南港經貿園區內","source_point_count":1,"source":"Taipei City DORTS official station GIS"}},{"type":"Feature","id":75,"geometry":{"type":"Point","coordinates":[121.50917264645564,24.990408530237495]},"properties":{"station_name":"南勢角站","location":"台鐵中和貨運站","source_point_count":1,"source":"Taipei City DORTS official station GIS"}},{"type":"Feature","id":31,"geometry":{"type":"Point","coordinates":[121.58200407697844,25.044278552343325]},"properties":{"station_name":"後山埤站","location":"忠孝東路與永吉路口","source_point_count":1,"source":"Taipei City DORTS official station GIS"}},{"type":"Feature","id":26,"geometry":{"type":"Point","coordinates":[121.54345147194134,25.025991975193026]},"properties":{"station_name":"科技大樓站","location":"復興南路與和平東路口附近之復興南路上","source_point_count":1,"source":"Taipei City DORTS official station GIS"}},{"type":"Feature","id":1,"geometry":{"type":"Point","coordinates":[121.45895451204268,25.154114156243903]},"properties":{"station_name":"紅樹林站","location":"現有外北勢溪附近","source_point_count":1,"source":"Taipei City DORTS official station GIS"}},{"type":"Feature","id":84,"geometry":{"type":"Point","coordinates":[121.47961609531481,25.080741785390835]},"properties":{"station_name":"徐匯中學站","location":"蘆洲市集賢路與中山一路交叉口","source_point_count":1,"source":"Taipei City DORTS official station GIS"}},{"type":"Feature","id":67,"geometry":{"type":"Point","coordinates":[121.4488752861492,24.985548274808487]},"properties":{"station_name":"海山站","location":"公館溝與裕民路口海山高工旁","source_point_count":1,"source":"Taipei City DORTS official station GIS"}},{"type":"Feature","id":97,"geometry":{"type":"Point","coordinates":[121.41266279325357,25.02251715577393]},"properties":{"station_name":"迴龍站","location":"新莊市中正路與中山路交會口，省立樂生療養院前","source_point_count":1,"source":"Taipei City DORTS official station GIS"}},{"type":"Feature","id":19,"geometry":{"type":"Point","coordinates":[121.57932507628705,24.998277483997533]},"properties":{"station_name":"動物園站","location":"新光路木柵動物園正門口右側","source_point_count":1,"source":"Taipei City DORTS official station GIS"}},{"type":"Feature","id":8,"geometry":{"type":"Point","coordinates":[121.50626481046268,25.120857944335484]},"properties":{"station_name":"唭哩岸站","location":"原台鐵淡水線與東華街２段３００巷交叉口","source_point_count":1,"source":"Taipei City DORTS official station GIS"}},{"type":"Feature","id":34,"geometry":{"type":"Point","coordinates":[121.55768894926362,25.041347466168325]},"properties":{"station_name":"國父紀念館","location":"忠孝東路與光復南路交叉口","source_point_count":1,"source":"Taipei City DORTS official station GIS"}},{"type":"Feature","id":0,"geometry":{"type":"Point","coordinates":[121.44525830818503,25.167993282038925]},"properties":{"station_name":"淡水站","location":"原有台鐵淡水站附近","source_point_count":1,"source":"Taipei City DORTS official station GIS"}},{"type":"Feature","id":39,"geometry":{"type":"Point","coordinates":[121.51544988024311,25.01361864440098]},"properties":{"station_name":"頂溪站","location":"永和路與竹林路交口","source_point_count":1,"source":"Taipei City DORTS official station GIS"}},{"type":"Feature","id":50,"geometry":{"type":"Point","coordinates":[121.52334018857918,25.04481300773387]},"properties":{"station_name":"善導寺站","location":"忠孝東路與林森路交叉口","source_point_count":1,"source":"Taipei City DORTS official station GIS"}},{"type":"Feature","id":71,"geometry":{"type":"Point","coordinates":[121.48520813534797,25.137446810563734]},"properties":{"station_name":"復興崗站","location":"中央北路三段５３巷和原台鐵淡水線交叉口","source_point_count":1,"source":"Taipei City DORTS official station GIS"}},{"type":"Feature","id":107,"geometry":{"type":"Point","coordinates":[121.51594721459807,24.992167767464956]},"properties":{"station_name":"景平站","location":"位於新北市中和區景平路123號，保警總隊前","source_point_count":1,"source":"Taipei City DORTS official station GIS"}},{"type":"Feature","id":48,"geometry":{"type":"Point","coordinates":[121.50509077817904,24.993922030475506]},"properties":{"station_name":"景安站","location":"景平路與景安路交口 / 位於新北市中和區景平路、景安路路口，可與中和新蘆線","source_point_count":2,"source":"Taipei City DORTS official station GIS"}},{"type":"Feature","id":38,"geometry":{"type":"Point","coordinates":[121.54092099212117,24.993178355313724]},"properties":{"station_name":"景美站","location":"羅斯福路與景福街交叉口 (景美分局前)","source_point_count":1,"source":"Taipei City DORTS official station GIS"}},{"type":"Feature","id":60,"geometry":{"type":"Point","coordinates":[121.57528311842917,25.079995002391957]},"properties":{"station_name":"港墘站","location":"內湖高工前","source_point_count":1,"source":"Taipei City DORTS official station GIS"}},{"type":"Feature","id":80,"geometry":{"type":"Point","coordinates":[121.4911383182421,25.059648333433987]},"properties":{"station_name":"菜寮站","location":"三重市重新路三段，中正南路高架橋與光明路之間","source_point_count":1,"source":"Taipei City DORTS official station GIS"}},{"type":"Feature","id":102,"geometry":{"type":"Point","coordinates":[121.57066633690752,25.032793323056197]},"properties":{"station_name":"象山站","location":"松仁路與信義路五段91巷間","source_point_count":1,"source":"Taipei City DORTS official station GIS"}},{"type":"Feature","id":12,"geometry":{"type":"Point","coordinates":[121.52013178477662,25.071380220807654]},"properties":{"station_name":"圓山站","location":"原台鐵淡水線與酒泉街交叉口","source_point_count":1,"source":"Taipei City DORTS official station GIS"}},{"type":"Feature","id":5,"geometry":{"type":"Point","coordinates":[121.50253117138158,25.136936400610026]},"properties":{"station_name":"新北投站","location":"原台鐵新北投站附近","source_point_count":1,"source":"Taipei City DORTS official station GIS"}},{"type":"Feature","id":115,"geometry":{"type":"Point","coordinates":[121.45957785560324,25.061081614863806]},"properties":{"station_name":"新北產業園區站","location":"位於新北市新莊區五工路、中山路一段路口，可與臺灣桃","source_point_count":1,"source":"Taipei City DORTS official station GIS"}},{"type":"Feature","id":73,"geometry":{"type":"Point","coordinates":[121.5412986559302,24.967394429526788]},"properties":{"station_name":"新店市公所","location":"北新路與中華路交叉口 (新店市公所前)","source_point_count":1,"source":"Taipei City DORTS official station GIS"}},{"type":"Feature","id":74,"geometry":{"type":"Point","coordinates":[121.53761004104788,24.95787164648964]},"properties":{"station_name":"新店站","location":"北新路台汽客運總站","source_point_count":1,"source":"Taipei City DORTS official station GIS"}},{"type":"Feature","id":116,"geometry":{"type":"Point","coordinates":[121.46798702827884,25.0229959471625]},"properties":{"station_name":"新埔民生站","location":"位於新北市板橋區民生路、文化路路口北側","source_point_count":1,"source":"Taipei City DORTS official station GIS"}},{"type":"Feature","id":49,"geometry":{"type":"Point","coordinates":[121.46798702827884,25.02299594716251]},"properties":{"station_name":"新埔站","location":"文化路與民生路交叉口","source_point_count":1,"source":"Taipei City DORTS official station GIS"}},{"type":"Feature","id":90,"geometry":{"type":"Point","coordinates":[121.4523178967531,25.036147907419725]},"properties":{"station_name":"新莊站","location":"新莊市新莊國中前之中正路","source_point_count":1,"source":"Taipei City DORTS official station GIS"}},{"type":"Feature","id":21,"geometry":{"type":"Point","coordinates":[121.5680666786744,24.99860771221739]},"properties":{"station_name":"萬芳社區站","location":"萬芳路南側臨近萬和街口","source_point_count":1,"source":"Taipei City DORTS official station GIS"}},{"type":"Feature","id":22,"geometry":{"type":"Point","coordinates":[121.55802856133039,24.999504450755992]},"properties":{"station_name":"萬芳醫院站","location":"興隆路３段北側警察專科學校附近","source_point_count":1,"source":"Taipei City DORTS official station GIS"}},{"type":"Feature","id":69,"geometry":{"type":"Point","coordinates":[121.5390022695377,25.00196532391579]},"properties":{"station_name":"萬隆站","location":"羅斯福路與萬隆街交叉口附近","source_point_count":1,"source":"Taipei City DORTS official station GIS"}},{"type":"Feature","id":64,"geometry":{"type":"Point","coordinates":[121.60724154576504,25.072689269932678]},"properties":{"station_name":"葫洲站","location":"康寧路二段181巷口附近","source_point_count":1,"source":"Taipei City DORTS official station GIS"}},{"type":"Feature","id":18,"geometry":{"type":"Point","coordinates":[121.51622007732041,25.04182702787018]},"properties":{"station_name":"臺大醫院站","location":"公園路與常德街口","source_point_count":1,"source":"Taipei City DORTS official station GIS"}},{"type":"Feature","id":87,"geometry":{"type":"Point","coordinates":[121.43581241981302,25.03276872879068]},"properties":{"station_name":"輔大站","location":"新莊市中正路輔仁大學校園東側","source_point_count":1,"source":"Taipei City DORTS official station GIS"}},{"type":"Feature","id":96,"geometry":{"type":"Point","coordinates":[121.55560715358534,25.084898455184952]},"properties":{"station_name":"劍南路站","location":"北安路821巷口附近","source_point_count":1,"source":"Taipei City DORTS official station GIS"}},{"type":"Feature","id":13,"geometry":{"type":"Point","coordinates":[121.52496914163929,25.084236416182044]},"properties":{"station_name":"劍潭站","location":"原台鐵淡水線與９６號計劃道路交叉口","source_point_count":1,"source":"Taipei City DORTS official station GIS"}},{"type":"Feature","id":112,"geometry":{"type":"Point","coordinates":[121.49022630210312,25.00459066653498]},"properties":{"station_name":"橋和站","location":"位於新北市中和區中山路、橋和路間之板南路上","source_point_count":1,"source":"Taipei City DORTS official station GIS"}},{"type":"Feature","id":89,"geometry":{"type":"Point","coordinates":[121.46162455914951,25.039607329798237]},"properties":{"station_name":"頭前庄站","location":"新莊市中正路近思源路口 / 位於新北市新莊區思源路、中正路路口，可與中和新蘆線","source_point_count":2,"source":"Taipei City DORTS official station GIS"}},{"type":"Feature","id":41,"geometry":{"type":"Point","coordinates":[121.50122086188654,25.035229129218752]},"properties":{"station_name":"龍山寺站","location":"和平西路三段與康定路交叉口","source_point_count":1,"source":"Taipei City DORTS official station GIS"}},{"type":"Feature","id":16,"geometry":{"type":"Point","coordinates":[121.52070999301226,25.05764685895834]},"properties":{"station_name":"雙連站","location":"原台鐵淡水線與民生西路交叉口","source_point_count":1,"source":"Taipei City DORTS official station GIS"}},{"type":"Feature","id":3,"geometry":{"type":"Point","coordinates":[121.46719972493362,25.125784711851043]},"properties":{"station_name":"關渡站","location":"關渡國小附近近靠原台鐵淡水線","source_point_count":1,"source":"Taipei City DORTS official station GIS"}},{"type":"Feature","id":86,"geometry":{"type":"Point","coordinates":[121.46435733712666,25.091563668312645]},"properties":{"station_name":"蘆洲站","location":"蘆洲市三民路與中正路交會路口東北側","source_point_count":1,"source":"Taipei City DORTS official station GIS"}},{"type":"Feature","id":24,"geometry":{"type":"Point","coordinates":[121.55882703203328,25.018523229450476]},"properties":{"station_name":"麟光站","location":"和平東路底麟光新村西側","source_point_count":1,"source":"Taipei City DORTS official station GIS"}}]}